start=new Date('2022-05-12T00:00:00.000Z').valueOf();
sats=[{"ECCENTRICITY":"0.00013850","REF_FRAME":"TEME","EPHEMERIS_TYPE":"0","DECAY_DATE":null,"MEAN_MOTION_DDOT":"0.0000000000000","TIME_SYSTEM":"UTC","CLASSIFICATION_TYPE":"U","NORAD_CAT_ID":"45694","MEAN_ANOMALY":"290.2310","MEAN_MOTION":"15.06385710","PERIAPSIS":"546.298","MEAN_ELEMENT_THEORY":"SGP4","REV_AT_EPOCH":"10812","RCS_SIZE":"LARGE","RA_OF_ASC_NODE":"213.3409","COUNTRY_CODE":"US","SEMIMAJOR_AXIS":"6925.392","LAUNCH_DATE":"2020-06-04","FILE":"3440740","BSTAR":"0.00001572100000","ARG_OF_PERICENTER":"69.8828","EPOCH":"2022-05-11T11:54:50.172192","TLE_LINE1":"1 45694U 20035AP  22131.49641403 -.00000047  00000-0  15721-4 0  9990","INCLINATION":"53.0538","SITE":"AFETR","ELEMENT_SET_NO":"999","OBJECT_NAME":"STARLINK-1419","GP_ID":"203273441","APOAPSIS":"548.217","CENTER_NAME":"EARTH","TLE_LINE2":"2 45694  53.0538 213.3409 0001385  69.8828 290.2310 15.06385710108129","OBJECT_ID":"2020-035AP","MEAN_MOTION_DOT":"-0.00000047","OBJECT_TYPE":"PAYLOAD","PERIOD":"95.593"},{"MEAN_MOTION":"15.06401544","MEAN_ANOMALY":"315.0716","CLASSIFICATION_TYPE":"U","NORAD_CAT_ID":"45695","RA_OF_ASC_NODE":"193.0661","RCS_SIZE":"LARGE","REV_AT_EPOCH":"10842","PERIAPSIS":"545.981","MEAN_ELEMENT_THEORY":"SGP4","DECAY_DATE":null,"EPHEMERIS_TYPE":"0","REF_FRAME":"TEME","ECCENTRICITY":"0.00017730","TIME_SYSTEM":"UTC","MEAN_MOTION_DDOT":"0.0000000000000","APOAPSIS":"548.437","GP_ID":"203273195","OBJECT_NAME":"STARLINK-1420","PERIOD":"95.592","OBJECT_TYPE":"PAYLOAD","MEAN_MOTION_DOT":"0.00000110","CENTER_NAME":"EARTH","TLE_LINE2":"2 45695  53.0527 193.0661 0001773  45.0417 315.0716 15.06401544108426","OBJECT_ID":"2020-035AQ","ARG_OF_PERICENTER":"45.0417","EPOCH":"2022-05-11T13:22:23.679264","BSTAR":"0.00002628700000","FILE":"3440740","LAUNCH_DATE":"2020-06-04","SEMIMAJOR_AXIS":"6925.344","COUNTRY_CODE":"US","ELEMENT_SET_NO":"999","SITE":"AFETR","TLE_LINE1":"1 45695U 20035AQ  22131.55721851  .00000110  00000-0  26287-4 0  9993","INCLINATION":"53.0527"},{"SITE":"AFETR","INCLINATION":"53.0542","TLE_LINE1":"1 45696U 20035AR  22131.50009190  .00000227  00000-0  34144-4 0  9994","ELEMENT_SET_NO":"999","LAUNCH_DATE":"2020-06-04","FILE":"3440939","SEMIMAJOR_AXIS":"6925.362","COUNTRY_CODE":"US","EPOCH":"2022-05-11T12:00:07.940160","ARG_OF_PERICENTER":"41.7024","BSTAR":"0.00003414400000","MEAN_MOTION_DOT":"0.00000227","CENTER_NAME":"EARTH","TLE_LINE2":"2 45696  53.0542 213.3276 0002037  41.7024 318.4120 15.06395639107728","OBJECT_ID":"2020-035AR","PERIOD":"95.592","OBJECT_TYPE":"PAYLOAD","OBJECT_NAME":"STARLINK-1422","APOAPSIS":"548.638","GP_ID":"203283522","TIME_SYSTEM":"UTC","MEAN_MOTION_DDOT":"0.0000000000000","REF_FRAME":"TEME","ECCENTRICITY":"0.00020370","DECAY_DATE":null,"EPHEMERIS_TYPE":"0","PERIAPSIS":"545.816","MEAN_ELEMENT_THEORY":"SGP4","RA_OF_ASC_NODE":"213.3276","RCS_SIZE":"LARGE","REV_AT_EPOCH":"10772","MEAN_MOTION":"15.06395639","MEAN_ANOMALY":"318.4120","NORAD_CAT_ID":"45696","CLASSIFICATION_TYPE":"U"},{"MEAN_MOTION_DDOT":"0.0000000000000","TIME_SYSTEM":"UTC","EPHEMERIS_TYPE":"0","DECAY_DATE":null,"ECCENTRICITY":"0.00015440","REF_FRAME":"TEME","REV_AT_EPOCH":"10801","RCS_SIZE":"LARGE","RA_OF_ASC_NODE":"193.1515","PERIAPSIS":"546.191","MEAN_ELEMENT_THEORY":"SGP4","CLASSIFICATION_TYPE":"U","NORAD_CAT_ID":"45697","MEAN_ANOMALY":"304.9403","MEAN_MOTION":"15.06384908","ELEMENT_SET_NO":"999","INCLINATION":"53.0545","TLE_LINE1":"1 45697U 20035AS  22131.54249109 -.00001675  00000-0 -93590-4 0  9995","SITE":"AFETR","BSTAR":"-0.00009359000000","ARG_OF_PERICENTER":"55.1731","EPOCH":"2022-05-11T13:01:11.230176","COUNTRY_CODE":"US","SEMIMAJOR_AXIS":"6925.395","FILE":"3440460","LAUNCH_DATE":"2020-06-04","OBJECT_TYPE":"PAYLOAD","PERIOD":"95.593","OBJECT_ID":"2020-035AS","TLE_LINE2":"2 45697  53.0545 193.1515 0001544  55.1731 304.9403 15.06384908108013","CENTER_NAME":"EARTH","MEAN_MOTION_DOT":"-0.00001675","GP_ID":"203247709","APOAPSIS":"548.329","OBJECT_NAME":"STARLINK-1351"},{"MEAN_MOTION_DDOT":"0.0000000000000","TIME_SYSTEM":"UTC","ECCENTRICITY":"0.00016820","REF_FRAME":"TEME","EPHEMERIS_TYPE":"0","DECAY_DATE":null,"PERIAPSIS":"546.085","MEAN_ELEMENT_THEORY":"SGP4","REV_AT_EPOCH":"10843","RCS_SIZE":"LARGE","RA_OF_ASC_NODE":"192.9043","NORAD_CAT_ID":"45698","CLASSIFICATION_TYPE":"U","MEAN_ANOMALY":"304.3615","MEAN_MOTION":"15.06388021","INCLINATION":"53.0552","TLE_LINE1":"1 45698U 20035AT  22131.59778049 -.00002772  00000-0 -16733-3 0  9993","SITE":"AFETR","ELEMENT_SET_NO":"999","COUNTRY_CODE":"US","SEMIMAJOR_AXIS":"6925.385","FILE":"3441154","LAUNCH_DATE":"2020-06-04","BSTAR":"-0.00016733000000","EPOCH":"2022-05-11T14:20:48.234336","ARG_OF_PERICENTER":"55.7533","TLE_LINE2":"2 45698  53.0552 192.9043 0001682  55.7533 304.3615 15.06388021108439","OBJECT_ID":"2020-035AT","CENTER_NAME":"EARTH","MEAN_MOTION_DOT":"-0.00002772","OBJECT_TYPE":"PAYLOAD","PERIOD":"95.593","OBJECT_NAME":"STARLINK-1370","GP_ID":"203306476","APOAPSIS":"548.415"},{"TLE_LINE2":"2 45699  53.0552 192.9565 0001431  70.7811 289.3333 15.06380885108425","OBJECT_ID":"2020-035AU","CENTER_NAME":"EARTH","MEAN_MOTION_DOT":"0.00005911","PERIOD":"95.593","OBJECT_TYPE":"PAYLOAD","OBJECT_NAME":"STARLINK-1398","APOAPSIS":"548.263","GP_ID":"203307226","SITE":"AFETR","INCLINATION":"53.0552","TLE_LINE1":"1 45699U 20035AU  22131.58673070  .00005911  00000-0  41561-3 0  9994","ELEMENT_SET_NO":"999","LAUNCH_DATE":"2020-06-04","FILE":"3441154","COUNTRY_CODE":"US","SEMIMAJOR_AXIS":"6925.407","BSTAR":"0.00041561000000","EPOCH":"2022-05-11T14:04:53.532480","ARG_OF_PERICENTER":"70.7811","MEAN_ELEMENT_THEORY":"SGP4","PERIAPSIS":"546.281","RA_OF_ASC_NODE":"192.9565","REV_AT_EPOCH":"10842","RCS_SIZE":"LARGE","NORAD_CAT_ID":"45699","CLASSIFICATION_TYPE":"U","MEAN_ANOMALY":"289.3333","MEAN_MOTION":"15.06380885","TIME_SYSTEM":"UTC","MEAN_MOTION_DDOT":"0.0000000000000","REF_FRAME":"TEME","ECCENTRICITY":"0.00014310","EPHEMERIS_TYPE":"0","DECAY_DATE":null},{"MEAN_MOTION_DDOT":"0.0000000000000","TIME_SYSTEM":"UTC","ECCENTRICITY":"0.00014900","REF_FRAME":"TEME","EPHEMERIS_TYPE":"0","DECAY_DATE":null,"PERIAPSIS":"546.177","MEAN_ELEMENT_THEORY":"SGP4","REV_AT_EPOCH":"10842","RCS_SIZE":"LARGE","RA_OF_ASC_NODE":"192.9602","NORAD_CAT_ID":"45700","CLASSIFICATION_TYPE":"U","MEAN_MOTION":"15.06401665","MEAN_ANOMALY":"274.1422","INCLINATION":"53.0537","TLE_LINE1":"1 45700U 20035AV  22131.58302223 -.00003042  00000-0 -18540-3 0  9992","SITE":"AFETR","ELEMENT_SET_NO":"999","COUNTRY_CODE":"US","SEMIMAJOR_AXIS":"6925.343","LAUNCH_DATE":"2020-06-04","FILE":"3441154","BSTAR":"-0.00018540000000","ARG_OF_PERICENTER":"85.9738","EPOCH":"2022-05-11T13:59:33.120672","CENTER_NAME":"EARTH","TLE_LINE2":"2 45700  53.0537 192.9602 0001490  85.9738 274.1422 15.06401665108425","OBJECT_ID":"2020-035AV","MEAN_MOTION_DOT":"-0.00003042","OBJECT_TYPE":"PAYLOAD","PERIOD":"95.592","OBJECT_NAME":"STARLINK-1400","GP_ID":"203307477","APOAPSIS":"548.240"},{"REF_FRAME":"TEME","ECCENTRICITY":"0.00019210","EPHEMERIS_TYPE":"0","DECAY_DATE":null,"TIME_SYSTEM":"UTC","MEAN_MOTION_DDOT":"0.0000000000000","CLASSIFICATION_TYPE":"U","NORAD_CAT_ID":"45701","MEAN_ANOMALY":"315.9500","MEAN_MOTION":"15.06399019","MEAN_ELEMENT_THEORY":"SGP4","PERIAPSIS":"545.886","RA_OF_ASC_NODE":"192.5274","REV_AT_EPOCH":"10843","RCS_SIZE":"LARGE","FILE":"3441154","LAUNCH_DATE":"2020-06-04","COUNTRY_CODE":"US","SEMIMAJOR_AXIS":"6925.352","BSTAR":"-0.00000076053000","EPOCH":"2022-05-11T16:17:33.116064","ARG_OF_PERICENTER":"44.1642","SITE":"AFETR","TLE_LINE1":"1 45701U 20035AW  22131.67885551 -.00000293  00000-0 -76053-6 0  9994","INCLINATION":"53.0551","ELEMENT_SET_NO":"999","OBJECT_NAME":"STARLINK-1403","APOAPSIS":"548.547","GP_ID":"203308222","OBJECT_ID":"2020-035AW","TLE_LINE2":"2 45701  53.0551 192.5274 0001921  44.1642 315.9500 15.06399019108434","CENTER_NAME":"EARTH","MEAN_MOTION_DOT":"-0.00000293","PERIOD":"95.592","OBJECT_TYPE":"PAYLOAD"},{"MEAN_MOTION_DDOT":"0.0000000000000","TIME_SYSTEM":"UTC","EPHEMERIS_TYPE":"0","DECAY_DATE":null,"ECCENTRICITY":"0.00016140","REF_FRAME":"TEME","REV_AT_EPOCH":"10840","RCS_SIZE":"LARGE","RA_OF_ASC_NODE":"193.5045","MEAN_ELEMENT_THEORY":"SGP4","PERIAPSIS":"546.114","CLASSIFICATION_TYPE":"U","NORAD_CAT_ID":"45702","MEAN_ANOMALY":"311.9688","MEAN_MOTION":"15.06394167","ELEMENT_SET_NO":"999","INCLINATION":"53.0541","TLE_LINE1":"1 45702U 20035AX  22131.46139753  .00001355  00000-0  10987-3 0  9997","SITE":"AFETR","BSTAR":"0.00010987000000","EPOCH":"2022-05-11T11:04:24.746592","ARG_OF_PERICENTER":"48.1438","COUNTRY_CODE":"US","SEMIMAJOR_AXIS":"6925.366","LAUNCH_DATE":"2020-06-04","FILE":"3440740","OBJECT_TYPE":"PAYLOAD","PERIOD":"95.593","TLE_LINE2":"2 45702  53.0541 193.5045 0001614  48.1438 311.9688 15.06394167108406","OBJECT_ID":"2020-035AX","CENTER_NAME":"EARTH","MEAN_MOTION_DOT":"0.00001355","GP_ID":"203273442","APOAPSIS":"548.349","OBJECT_NAME":"STARLINK-1405"},{"ELEMENT_SET_NO":"999","INCLINATION":"53.0548","TLE_LINE1":"1 45703U 20035AY  22131.65675239 -.00002406  00000-0 -14275-3 0  9997","SITE":"AFETR","ARG_OF_PERICENTER":"59.8252","EPOCH":"2022-05-11T15:45:43.406496","BSTAR":"-0.00014275000000","SEMIMAJOR_AXIS":"6925.386","COUNTRY_CODE":"US","FILE":"3441154","LAUNCH_DATE":"2020-06-04","OBJECT_TYPE":"PAYLOAD","PERIOD":"95.593","MEAN_MOTION_DOT":"-0.00002406","TLE_LINE2":"2 45703  53.0548 192.6415 0001571  59.8252 300.2893 15.06387841108433","OBJECT_ID":"2020-035AY","CENTER_NAME":"EARTH","GP_ID":"203306726","APOAPSIS":"548.339","OBJECT_NAME":"STARLINK-1407","MEAN_MOTION_DDOT":"0.0000000000000","TIME_SYSTEM":"UTC","DECAY_DATE":null,"EPHEMERIS_TYPE":"0","ECCENTRICITY":"0.00015710","REF_FRAME":"TEME","RCS_SIZE":"LARGE","REV_AT_EPOCH":"10843","RA_OF_ASC_NODE":"192.6415","PERIAPSIS":"546.163","MEAN_ELEMENT_THEORY":"SGP4","MEAN_ANOMALY":"300.2893","MEAN_MOTION":"15.06387841","NORAD_CAT_ID":"45703","CLASSIFICATION_TYPE":"U"}];
